24967,IRIDIUM 36,1997,100.25,-1.0,-,86.39,Inactive,0,LEO,USA,USA,Unknown,Unknown,Delta,1 24967U 97056C   23251.61337239  .00000480  00000+0  15722-3 0  9993,2 24967  86.3912  84.8746 0001904  84.6654 275.4760 14.36383229359226,14.36383229,0.0001904,LEO
25042,IRIDIUM 39,1997,99.49,-1.0,-,86.39,Inactive,0,LEO,USA,USA,Unknown,Unknown,Delta,1 25042U 97069D   23251.57934052  .00000582  00000+0  15325-3 0  9995,2 25042  86.3923 128.4813 0016968 311.9636  48.0120 14.47338543355237,14.47338543,0.0016968,LEO
25043,IRIDIUM 38,1997,100.22,-1.0,-,86.4,Inactive,0,LEO,USA,USA,Unknown,Unknown,Delta,1 25043U 97069E   23251.22350640  .00000482  00000+0  15631-3 0  9992,2 25043  86.4004 145.5424 0004264  82.1111 278.0570 14.36865134352878,14.36865134,0.0004264,LEO
25077,IRIDIUM 42,1997,100.34,-1.0,-,86.4,Inactive,0,LEO,PRC,USA,Unknown,Unknown,Long March,1 25077U 97077A   23251.77902323  .00000460  00000+0  15415-3 0  9995,2 25077  86.4016 150.6848 0002796  82.1674 277.9840 14.35184396348301,14.35184396,0.0002796,LEO
25078,IRIDIUM 44,1997,100.07,-1.0,-,86.4,Inactive,0,LEO,PRC,USA,Unknown,Unknown,Long March,1 25078U 97077B   23251.58325589  .00000431  00000+0  13346-3 0  9997,2 25078  86.3974 134.4483 0002898  44.1780 315.9650 14.38964854350536,14.38964854,0.0002898,LEO
25104,IRIDIUM 45,1997,96.35,-1.0,-,86.38,Inactive,0,LEO,USA,USA,Unknown,Unknown,Delta,1 25104U 97082A   23251.54167780  .00014215  00000+0  93568-3 0  9995,2 25104  86.3814 354.0372 0183028 180.5375 179.5689 14.94617847354524,14.94617847,0.0183028,LEO
25105,IRIDIUM 24,1997,99.95,-1.0,-,86.4,Inactive,0,LEO,USA,USA,Unknown,Unknown,Delta,1 25105U 97082B   23251.39290273  .00000690  00000+0  20968-3 0  9999,2 25105  86.3972 354.5877 0013376  61.9920 298.2630 14.40713180349900,14.4071318,0.0013376,LEO
25262,IRIDIUM 51,1998,95.91,-1.0,-,86.4,Inactive,0,LEO,PRC,USA,Unknown,Unknown,Long March,1 25262U 98018A   23251.74471303  .00016605  00000+0  93701-3 0  9995,2 25262  86.3987   4.5658 0170145 136.1634 225.3251 15.01453556349124,15.01453556,0.0170145,LEO
